STARLINK-1071           
1 44934U 20001W   25212.91668981  .00218610  00000+0  95825-3 0  9996
2 44934  53.0446 202.6721 0011732   0.9189 212.5063 15.83411310  6001
STARLINK-1079           
1 44937U 20001Z   25212.76726767  .00636765  21881-3  73209-3 0  9990
2 44937  53.0238 119.1209 0002310 308.5078  51.5747 16.08421742308500
STARLINK-1091           
1 44940U 20001AC  25212.91668981  .00197438  00000+0  23985-2 0  9994
2 44940  53.0472 214.2543 0009278 353.6456  58.4215 15.59381232  5934
STARLINK-1094           
1 44941U 20001AD  25212.46934239  .00000712  00000+0  66697-4 0  9994
2 44941  53.0540 239.7155 0000961  83.0114 277.0984 15.06398202306783
STARLINK-1096           
1 44942U 20001AE  25212.82520821  .00060807  00000+0  53926-3 0  9994
2 44942  52.9976  43.4115 0001908 112.7702 247.3515 15.68012821309552
STARLINK-1122           
1 44949U 20001AM  25212.62414247  .00000657  00000+0  62962-4 0  9991
2 44949  53.0539 239.0190 0000950  76.8993 283.2102 15.06404056306803
STARLINK-1066           
1 44954U 20001AS  25212.91668981  .00220772  00000+0  13612-2 0  9993
2 44954  53.0485 186.4559 0013050  13.9383  40.4206 15.75890410  6010
STARLINK-1080           
1 44961U 20001AZ  25212.88769941 -.00000502  00000+0 -14838-4 0  9997
2 44961  53.0533 217.8410 0001167  83.9061 276.2061 15.06390792307130
STARLINK-1090           
1 44968U 20001BG  25212.29425509  .00000450  00000+0  49105-4 0  9993
2 44968  53.0536 220.5046 0001003  78.3448 281.7653 15.06402712307046
STARLINK-1093           
1 44970U 20001BJ  25212.45029843  .00639494  21997-3  74508-3 0  9997
2 44970  53.0317 111.4930 0003122 230.6033 129.4724 16.08209362308567
STARLINK-1107           
1 44972U 20001BL  25212.88757306  .00057596  00000+0  10726-2 0  9994
2 44972  53.0148 164.9405 0000053 299.5733  60.5269 15.48312534307873
STARLINK-1115           
1 44973U 20001BM  25212.91668981  .00189456  00000+0  79502-3 0  9998
2 44973  53.0272 127.9973 0006355  54.8957 238.8717 15.84479614  6059
STARLINK-1132           
1 45044U 20006A   25212.91719164 -.00000608  00000+0 -21923-4 0  9991
2 45044  53.0539 177.7039 0001290  86.3681 273.7455 15.06394482303463
STARLINK-1131           
1 45047U 20006D   25212.95964368 -.00000478  00000+0 -13234-4 0  9997
2 45047  53.0538 198.0524 0001377  86.1677 273.9469 15.06392802303189
STARLINK-1134           
1 45048U 20006E   25212.95933871  .00043623  00000+0  20028-2 0  9997
2 45048  53.0535 186.8129 0002933 243.4746 116.5948 15.20000811303341
STARLINK-1156           
1 45054U 20006L   25212.66470229  .00000088  00000+0  24797-4 0  9992
2 45054  53.0542 198.8396 0001187  75.7818 284.3303 15.06398546303484
