[{"OBJECT_NAME":"STARLINK-1071","OBJECT_ID":"2020-001W","EPOCH":"2025-07-31T22:00:01.999584","MEAN_MOTION":15.8341131,"ECCENTRICITY":0.0011732,"INCLINATION":53.0446,"RA_OF_ASC_NODE":202.6721,"ARG_OF_PERICENTER":0.9189,"MEAN_ANOMALY":212.5063,"EPHEMERIS_TYPE":0,"CLASSIFICATION_TYPE":"U","NORAD_CAT_ID":44934,"ELEMENT_SET_NO":999,"REV_AT_EPOCH":600,"BSTAR":0.00095825,"MEAN_MOTION_DOT":0.0021861,"MEAN_MOTION_DDOT":0},{"OBJECT_NAME":"STARLINK-1079","OBJECT_ID":"2020-001Z","EPOCH":"2025-07-31T18:24:51.926688","MEAN_MOTION":16.08421742,"ECCENTRICITY":0.000231,"INCLINATION":53.0238,"RA_OF_ASC_NODE":119.1209,"ARG_OF_PERICENTER":308.5078,"MEAN_ANOMALY":51.5747,"EPHEMERIS_TYPE":0,"CLASSIFICATION_TYPE":"U","NORAD_CAT_ID":44937,"ELEMENT_SET_NO":999,"REV_AT_EPOCH":30850,"BSTAR":0.00073209,"MEAN_MOTION_DOT":0.00636765,"MEAN_MOTION_DDOT":0.00021881},{"OBJECT_NAME":"STARLINK-1091","OBJECT_ID":"2020-001AC","EPOCH":"2025-07-31T22:00:01.999584","MEAN_MOTION":15.59381232,"ECCENTRICITY":0.0009278,"INCLINATION":53.0472,"RA_OF_ASC_NODE":214.2543,"ARG_OF_PERICENTER":353.6456,"MEAN_ANOMALY":58.4215,"EPHEMERIS_TYPE":0,"CLASSIFICATION_TYPE":"U","NORAD_CAT_ID":44940,"ELEMENT_SET_NO":999,"REV_AT_EPOCH":593,"BSTAR":0.0023985,"MEAN_MOTION_DOT":0.00197438,"MEAN_MOTION_DDOT":0},{"OBJECT_NAME":"STARLINK-1094","OBJECT_ID":"2020-001AD","EPOCH":"2025-07-31T11:15:51.182496","MEAN_MOTION":15.06398202,"ECCENTRICITY":9.61e-5,"INCLINATION":53.054,"RA_OF_ASC_NODE":239.7155,"ARG_OF_PERICENTER":83.0114,"MEAN_ANOMALY":277.0984,"EPHEMERIS_TYPE":0,"CLASSIFICATION_TYPE":"U","NORAD_CAT_ID":44941,"ELEMENT_SET_NO":999,"REV_AT_EPOCH":30678,"BSTAR":6.6697e-5,"MEAN_MOTION_DOT":7.12e-6,"MEAN_MOTION_DDOT":0},{"OBJECT_NAME":"STARLINK-1096","OBJECT_ID":"2020-001AE","EPOCH":"2025-07-31T19:48:17.989344","MEAN_MOTION":15.68012821,"ECCENTRICITY":0.0001908,"INCLINATION":52.9976,"RA_OF_ASC_NODE":43.4115,"ARG_OF_PERICENTER":112.7702,"MEAN_ANOMALY":247.3515,"EPHEMERIS_TYPE":0,"CLASSIFICATION_TYPE":"U","NORAD_CAT_ID":44942,"ELEMENT_SET_NO":999,"REV_AT_EPOCH":30955,"BSTAR":0.00053926,"MEAN_MOTION_DOT":0.00060807,"MEAN_MOTION_DDOT":0},{"OBJECT_NAME":"STARLINK-1122","OBJECT_ID":"2020-001AM","EPOCH":"2025-07-31T14:58:45.909408","MEAN_MOTION":15.06404056,"ECCENTRICITY":9.5e-5,"INCLINATION":53.0539,"RA_OF_ASC_NODE":239.019,"ARG_OF_PERICENTER":76.8993,"MEAN_ANOMALY":283.2102,"EPHEMERIS_TYPE":0,"CLASSIFICATION_TYPE":"U","NORAD_CAT_ID":44949,"ELEMENT_SET_NO":999,"REV_AT_EPOCH":30680,"BSTAR":6.2962e-5,"MEAN_MOTION_DOT":6.57e-6,"MEAN_MOTION_DDOT":0},{"OBJECT_NAME":"STARLINK-1066","OBJECT_ID":"2020-001AS","EPOCH":"2025-07-31T22:00:01.999584","MEAN_MOTION":15.7589041,"ECCENTRICITY":0.001305,"INCLINATION":53.0485,"RA_OF_ASC_NODE":186.4559,"ARG_OF_PERICENTER":13.9383,"MEAN_ANOMALY":40.4206,"EPHEMERIS_TYPE":0,"CLASSIFICATION_TYPE":"U","NORAD_CAT_ID":44954,"ELEMENT_SET_NO":999,"REV_AT_EPOCH":601,"BSTAR":0.0013612,"MEAN_MOTION_DOT":0.00220772,"MEAN_MOTION_DDOT":0},{"OBJECT_NAME":"STARLINK-1080","OBJECT_ID":"2020-001AZ","EPOCH":"2025-07-31T21:18:17.229024","MEAN_MOTION":15.06390792,"ECCENTRICITY":0.0001167,"INCLINATION":53.0533,"RA_OF_ASC_NODE":217.841,"ARG_OF_PERICENTER":83.9061,"MEAN_ANOMALY":276.2061,"EPHEMERIS_TYPE":0,"CLASSIFICATION_TYPE":"U","NORAD_CAT_ID":44961,"ELEMENT_SET_NO":999,"REV_AT_EPOCH":30713,"BSTAR":-1.4838e-5,"MEAN_MOTION_DOT":-5.02e-6,"MEAN_MOTION_DDOT":0},{"OBJECT_NAME":"STARLINK-1090","OBJECT_ID":"2020-001BG","EPOCH":"2025-07-31T07:03:43.639776","MEAN_MOTION":15.06402712,"ECCENTRICITY":0.0001003,"INCLINATION":53.0536,"RA_OF_ASC_NODE":220.5046,"ARG_OF_PERICENTER":78.3448,"MEAN_ANOMALY":281.7653,"EPHEMERIS_TYPE":0,"CLASSIFICATION_TYPE":"U","NORAD_CAT_ID":44968,"ELEMENT_SET_NO":999,"REV_AT_EPOCH":30704,"BSTAR":4.9105e-5,"MEAN_MOTION_DOT":4.5e-6,"MEAN_MOTION_DDOT":0},{"OBJECT_NAME":"STARLINK-1093","OBJECT_ID":"2020-001BJ","EPOCH":"2025-07-31T10:48:25.784352","MEAN_MOTION":16.08209362,"ECCENTRICITY":0.0003122,"INCLINATION":53.0317,"RA_OF_ASC_NODE":111.493,"ARG_OF_PERICENTER":230.6033,"MEAN_ANOMALY":129.4724,"EPHEMERIS_TYPE":0,"CLASSIFICATION_TYPE":"U","NORAD_CAT_ID":44970,"ELEMENT_SET_NO":999,"REV_AT_EPOCH":30856,"BSTAR":0.00074508,"MEAN_MOTION_DOT":0.00639494,"MEAN_MOTION_DDOT":0.00021997},{"OBJECT_NAME":"STARLINK-1107","OBJECT_ID":"2020-001BL","EPOCH":"2025-07-31T21:18:06.312384","MEAN_MOTION":15.48312534,"ECCENTRICITY":5.3e-6,"INCLINATION":53.0148,"RA_OF_ASC_NODE":164.9405,"ARG_OF_PERICENTER":299.5733,"MEAN_ANOMALY":60.5269,"EPHEMERIS_TYPE":0,"CLASSIFICATION_TYPE":"U","NORAD_CAT_ID":44972,"ELEMENT_SET_NO":999,"REV_AT_EPOCH":30787,"BSTAR":0.0010726,"MEAN_MOTION_DOT":0.00057596,"MEAN_MOTION_DDOT":0},{"OBJECT_NAME":"STARLINK-1115","OBJECT_ID":"2020-001BM","EPOCH":"2025-07-31T22:00:01.999584","MEAN_MOTION":15.84479614,"ECCENTRICITY":0.0006355,"INCLINATION":53.0272,"RA_OF_ASC_NODE":127.9973,"ARG_OF_PERICENTER":54.8957,"MEAN_ANOMALY":238.8717,"EPHEMERIS_TYPE":0,"CLASSIFICATION_TYPE":"U","NORAD_CAT_ID":44973,"ELEMENT_SET_NO":999,"REV_AT_EPOCH":605,"BSTAR":0.00079502,"MEAN_MOTION_DOT":0.00189456,"MEAN_MOTION_DDOT":0},{"OBJECT_NAME":"STARLINK-1132","OBJECT_ID":"2020-006A","EPOCH":"2025-07-31T22:00:45.357696","MEAN_MOTION":15.06394482,"ECCENTRICITY":0.000129,"INCLINATION":53.0539,"RA_OF_ASC_NODE":177.7039,"ARG_OF_PERICENTER":86.3681,"MEAN_ANOMALY":273.7455,"EPHEMERIS_TYPE":0,"CLASSIFICATION_TYPE":"U","NORAD_CAT_ID":45044,"ELEMENT_SET_NO":999,"REV_AT_EPOCH":30346,"BSTAR":-2.1923e-5,"MEAN_MOTION_DOT":-6.08e-6,"MEAN_MOTION_DDOT":0},{"OBJECT_NAME":"STARLINK-1131","OBJECT_ID":"2020-006D","EPOCH":"2025-07-31T23:01:53.213952","MEAN_MOTION":15.06392802,"ECCENTRICITY":0.0001377,"INCLINATION":53.0538,"RA_OF_ASC_NODE":198.0524,"ARG_OF_PERICENTER":86.1677,"MEAN_ANOMALY":273.9469,"EPHEMERIS_TYPE":0,"CLASSIFICATION_TYPE":"U","NORAD_CAT_ID":45047,"ELEMENT_SET_NO":999,"REV_AT_EPOCH":30318,"BSTAR":-1.3234e-5,"MEAN_MOTION_DOT":-4.78e-6,"MEAN_MOTION_DDOT":0},{"OBJECT_NAME":"STARLINK-1134","OBJECT_ID":"2020-006E","EPOCH":"2025-07-31T23:01:26.864544","MEAN_MOTION":15.20000811,"ECCENTRICITY":0.0002933,"INCLINATION":53.0535,"RA_OF_ASC_NODE":186.8129,"ARG_OF_PERICENTER":243.4746,"MEAN_ANOMALY":116.5948,"EPHEMERIS_TYPE":0,"CLASSIFICATION_TYPE":"U","NORAD_CAT_ID":45048,"ELEMENT_SET_NO":999,"REV_AT_EPOCH":30334,"BSTAR":0.0020028,"MEAN_MOTION_DOT":0.00043623,"MEAN_MOTION_DDOT":0},{"OBJECT_NAME":"STARLINK-1156","OBJECT_ID":"2020-006L","EPOCH":"2025-07-31T15:57:10.277856","MEAN_MOTION":15.06398546,"ECCENTRICITY":0.0001187,"INCLINATION":53.0542,"RA_OF_ASC_NODE":198.8396,"ARG_OF_PERICENTER":75.7818,"MEAN_ANOMALY":284.3303,"EPHEMERIS_TYPE":0,"CLASSIFICATION_TYPE":"U","NORAD_CAT_ID":45054,"ELEMENT_SET_NO":999,"REV_AT_EPOCH":30348,"BSTAR":2.4797e-5,"MEAN_MOTION_DOT":8.8e-7,"MEAN_MOTION_DDOT":0}]
